<?xml version="1.0" encoding="UTF-8"?>
<ndm xmlns:xsi="http://www.w3.org/2001/XMLSchema-instance" xsi:noNamespaceSchemaLocation="https://sanaregistry.org/r/ndmxml_unqualified/ndmxml-2.0.0-master-2.0.xsd">
<omm id="CCSDS_OMM_VERS" version="2.0">
<header><CREATION_DATE/><ORIGINATOR/></header><body><segment><metadata><OBJECT_NAME>ONEWEB-0695</OBJECT_NAME><OBJECT_ID>2024-188J</OBJECT_ID><CENTER_NAME>EARTH</CENTER_NAME><REF_FRAME>TEME</REF_FRAME><TIME_SYSTEM>UTC</TIME_SYSTEM><MEAN_ELEMENT_THEORY>SGP4</MEAN_ELEMENT_THEORY></metadata><data><meanElements><EPOCH>2025-02-15T04:00:00.999936</EPOCH><MEAN_MOTION>14.18696931</MEAN_MOTION><ECCENTRICITY>.000337</ECCENTRICITY><INCLINATION>87.0254</INCLINATION><RA_OF_ASC_NODE>121.7529</RA_OF_ASC_NODE><ARG_OF_PERICENTER>137.8172</ARG_OF_PERICENTER><MEAN_ANOMALY>73.5725</MEAN_ANOMALY></meanElements><tleParameters><EPHEMERIS_TYPE>0</EPHEMERIS_TYPE><CLASSIFICATION_TYPE>U</CLASSIFICATION_TYPE><NORAD_CAT_ID>61602</NORAD_CAT_ID><ELEMENT_SET_NO>999</ELEMENT_SET_NO><REV_AT_EPOCH>1856</REV_AT_EPOCH><BSTAR>-.40798E+0</BSTAR><MEAN_MOTION_DOT>-.797629E-2</MEAN_MOTION_DOT><MEAN_MOTION_DDOT>0</MEAN_MOTION_DDOT></tleParameters></data></segment></body></omm>
<omm id="CCSDS_OMM_VERS" version="2.0">
<header><CREATION_DATE/><ORIGINATOR/></header><body><segment><metadata><OBJECT_NAME>ONEWEB-0697</OBJECT_NAME><OBJECT_ID>2024-188K</OBJECT_ID><CENTER_NAME>EARTH</CENTER_NAME><REF_FRAME>TEME</REF_FRAME><TIME_SYSTEM>UTC</TIME_SYSTEM><MEAN_ELEMENT_THEORY>SGP4</MEAN_ELEMENT_THEORY></metadata><data><meanElements><EPOCH>2025-02-15T14:00:03.000384</EPOCH><MEAN_MOTION>14.15752306</MEAN_MOTION><ECCENTRICITY>.0002007</ECCENTRICITY><INCLINATION>87.0227</INCLINATION><RA_OF_ASC_NODE>121.6012</RA_OF_ASC_NODE><ARG_OF_PERICENTER>162.8926</ARG_OF_PERICENTER><MEAN_ANOMALY>161.3415</MEAN_ANOMALY></meanElements><tleParameters><EPHEMERIS_TYPE>0</EPHEMERIS_TYPE><CLASSIFICATION_TYPE>U</CLASSIFICATION_TYPE><NORAD_CAT_ID>61603</NORAD_CAT_ID><ELEMENT_SET_NO>999</ELEMENT_SET_NO><REV_AT_EPOCH>1864</REV_AT_EPOCH><BSTAR>-.46829E+0</BSTAR><MEAN_MOTION_DOT>-.870209E-2</MEAN_MOTION_DOT><MEAN_MOTION_DDOT>0</MEAN_MOTION_DDOT></tleParameters></data></segment></body></omm>
<omm id="CCSDS_OMM_VERS" version="2.0">
<header><CREATION_DATE/><ORIGINATOR/></header><body><segment><metadata><OBJECT_NAME>ONEWEB-0698</OBJECT_NAME><OBJECT_ID>2024-188L</OBJECT_ID><CENTER_NAME>EARTH</CENTER_NAME><REF_FRAME>TEME</REF_FRAME><TIME_SYSTEM>UTC</TIME_SYSTEM><MEAN_ELEMENT_THEORY>SGP4</MEAN_ELEMENT_THEORY></metadata><data><meanElements><EPOCH>2025-02-15T14:00:03.000384</EPOCH><MEAN_MOTION>14.18719956</MEAN_MOTION><ECCENTRICITY>.0005599</ECCENTRICITY><INCLINATION>87.0329</INCLINATION><RA_OF_ASC_NODE>121.6183</RA_OF_ASC_NODE><ARG_OF_PERICENTER>153.8390</ARG_OF_PERICENTER><MEAN_ANOMALY>112.4825</MEAN_ANOMALY></meanElements><tleParameters><EPHEMERIS_TYPE>0</EPHEMERIS_TYPE><CLASSIFICATION_TYPE>U</CLASSIFICATION_TYPE><NORAD_CAT_ID>61604</NORAD_CAT_ID><ELEMENT_SET_NO>999</ELEMENT_SET_NO><REV_AT_EPOCH>1841</REV_AT_EPOCH><BSTAR>-.39193E+0</BSTAR><MEAN_MOTION_DOT>-.768297E-2</MEAN_MOTION_DOT><MEAN_MOTION_DDOT>0</MEAN_MOTION_DDOT></tleParameters></data></segment></body></omm>
<omm id="CCSDS_OMM_VERS" version="2.0">
<header><CREATION_DATE/><ORIGINATOR/></header><body><segment><metadata><OBJECT_NAME>ONEWEB-0699</OBJECT_NAME><OBJECT_ID>2024-188M</OBJECT_ID><CENTER_NAME>EARTH</CENTER_NAME><REF_FRAME>TEME</REF_FRAME><TIME_SYSTEM>UTC</TIME_SYSTEM><MEAN_ELEMENT_THEORY>SGP4</MEAN_ELEMENT_THEORY></metadata><data><meanElements><EPOCH>2025-02-15T14:00:03.000384</EPOCH><MEAN_MOTION>13.16726730</MEAN_MOTION><ECCENTRICITY>.0000673</ECCENTRICITY><INCLINATION>87.9155</INCLINATION><RA_OF_ASC_NODE>133.2466</RA_OF_ASC_NODE><ARG_OF_PERICENTER>102.5204</ARG_OF_PERICENTER><MEAN_ANOMALY>141.3727</MEAN_ANOMALY></meanElements><tleParameters><EPHEMERIS_TYPE>0</EPHEMERIS_TYPE><CLASSIFICATION_TYPE>U</CLASSIFICATION_TYPE><NORAD_CAT_ID>61605</NORAD_CAT_ID><ELEMENT_SET_NO>999</ELEMENT_SET_NO><REV_AT_EPOCH>1770</REV_AT_EPOCH><BSTAR>-.26685E+0</BSTAR><MEAN_MOTION_DOT>-.101078E-2</MEAN_MOTION_DOT><MEAN_MOTION_DDOT>0</MEAN_MOTION_DDOT></tleParameters></data></segment></body></omm>
<omm id="CCSDS_OMM_VERS" version="2.0">
<header><CREATION_DATE/><ORIGINATOR/></header><body><segment><metadata><OBJECT_NAME>ONEWEB-0700</OBJECT_NAME><OBJECT_ID>2024-188N</OBJECT_ID><CENTER_NAME>EARTH</CENTER_NAME><REF_FRAME>TEME</REF_FRAME><TIME_SYSTEM>UTC</TIME_SYSTEM><MEAN_ELEMENT_THEORY>SGP4</MEAN_ELEMENT_THEORY></metadata><data><meanElements><EPOCH>2025-02-15T14:00:03.000384</EPOCH><MEAN_MOTION>13.10518806</MEAN_MOTION><ECCENTRICITY>.0000289</ECCENTRICITY><INCLINATION>87.8850</INCLINATION><RA_OF_ASC_NODE>133.2543</RA_OF_ASC_NODE><ARG_OF_PERICENTER>318.3016</ARG_OF_PERICENTER><MEAN_ANOMALY>1.5469</MEAN_ANOMALY></meanElements><tleParameters><EPHEMERIS_TYPE>0</EPHEMERIS_TYPE><CLASSIFICATION_TYPE>U</CLASSIFICATION_TYPE><NORAD_CAT_ID>61606</NORAD_CAT_ID><ELEMENT_SET_NO>999</ELEMENT_SET_NO><REV_AT_EPOCH>1776</REV_AT_EPOCH><BSTAR>.12599E+0</BSTAR><MEAN_MOTION_DOT>.44297E-3</MEAN_MOTION_DOT><MEAN_MOTION_DDOT>0</MEAN_MOTION_DDOT></tleParameters></data></segment></body></omm>
<omm id="CCSDS_OMM_VERS" version="2.0">
<header><CREATION_DATE/><ORIGINATOR/></header><body><segment><metadata><OBJECT_NAME>ONEWEB-0701</OBJECT_NAME><OBJECT_ID>2024-188P</OBJECT_ID><CENTER_NAME>EARTH</CENTER_NAME><REF_FRAME>TEME</REF_FRAME><TIME_SYSTEM>UTC</TIME_SYSTEM><MEAN_ELEMENT_THEORY>SGP4</MEAN_ELEMENT_THEORY></metadata><data><meanElements><EPOCH>2025-02-13T12:12:34.545888</EPOCH><MEAN_MOTION>13.22922134</MEAN_MOTION><ECCENTRICITY>.0000863</ECCENTRICITY><INCLINATION>87.9418</INCLINATION><RA_OF_ASC_NODE>133.6635</RA_OF_ASC_NODE><ARG_OF_PERICENTER>70.6000</ARG_OF_PERICENTER><MEAN_ANOMALY>289.5227</MEAN_ANOMALY></meanElements><tleParameters><EPHEMERIS_TYPE>0</EPHEMERIS_TYPE><CLASSIFICATION_TYPE>U</CLASSIFICATION_TYPE><NORAD_CAT_ID>61607</NORAD_CAT_ID><ELEMENT_SET_NO>999</ELEMENT_SET_NO><REV_AT_EPOCH>1930</REV_AT_EPOCH><BSTAR>.98065E-4</BSTAR><MEAN_MOTION_DOT>.54E-6</MEAN_MOTION_DOT><MEAN_MOTION_DDOT>0</MEAN_MOTION_DDOT></tleParameters></data></segment></body></omm>
<omm id="CCSDS_OMM_VERS" version="2.0">
<header><CREATION_DATE/><ORIGINATOR/></header><body><segment><metadata><OBJECT_NAME>ONEWEB-0702</OBJECT_NAME><OBJECT_ID>2024-188Q</OBJECT_ID><CENTER_NAME>EARTH</CENTER_NAME><REF_FRAME>TEME</REF_FRAME><TIME_SYSTEM>UTC</TIME_SYSTEM><MEAN_ELEMENT_THEORY>SGP4</MEAN_ELEMENT_THEORY></metadata><data><meanElements><EPOCH>2025-02-15T14:00:03.000384</EPOCH><MEAN_MOTION>14.20279088</MEAN_MOTION><ECCENTRICITY>.0006334</ECCENTRICITY><INCLINATION>87.0290</INCLINATION><RA_OF_ASC_NODE>121.6269</RA_OF_ASC_NODE><ARG_OF_PERICENTER>152.2249</ARG_OF_PERICENTER><MEAN_ANOMALY>194.0050</MEAN_ANOMALY></meanElements><tleParameters><EPHEMERIS_TYPE>0</EPHEMERIS_TYPE><CLASSIFICATION_TYPE>U</CLASSIFICATION_TYPE><NORAD_CAT_ID>61608</NORAD_CAT_ID><ELEMENT_SET_NO>999</ELEMENT_SET_NO><REV_AT_EPOCH>1846</REV_AT_EPOCH><BSTAR>-.368E+0</BSTAR><MEAN_MOTION_DOT>-.744178E-2</MEAN_MOTION_DOT><MEAN_MOTION_DDOT>0</MEAN_MOTION_DDOT></tleParameters></data></segment></body></omm>
<omm id="CCSDS_OMM_VERS" version="2.0">
<header><CREATION_DATE/><ORIGINATOR/></header><body><segment><metadata><OBJECT_NAME>ONEWEB-0704</OBJECT_NAME><OBJECT_ID>2024-188R</OBJECT_ID><CENTER_NAME>EARTH</CENTER_NAME><REF_FRAME>TEME</REF_FRAME><TIME_SYSTEM>UTC</TIME_SYSTEM><MEAN_ELEMENT_THEORY>SGP4</MEAN_ELEMENT_THEORY></metadata><data><meanElements><EPOCH>2025-02-15T14:00:03.000384</EPOCH><MEAN_MOTION>13.16731548</MEAN_MOTION><ECCENTRICITY>.0001402</ECCENTRICITY><INCLINATION>87.9002</INCLINATION><RA_OF_ASC_NODE>133.1412</RA_OF_ASC_NODE><ARG_OF_PERICENTER>77.0475</ARG_OF_PERICENTER><MEAN_ANOMALY>170.5838</MEAN_ANOMALY></meanElements><tleParameters><EPHEMERIS_TYPE>0</EPHEMERIS_TYPE><CLASSIFICATION_TYPE>U</CLASSIFICATION_TYPE><NORAD_CAT_ID>61609</NORAD_CAT_ID><ELEMENT_SET_NO>999</ELEMENT_SET_NO><REV_AT_EPOCH>1770</REV_AT_EPOCH><BSTAR>.10171E+0</BSTAR><MEAN_MOTION_DOT>.39141E-3</MEAN_MOTION_DOT><MEAN_MOTION_DDOT>0</MEAN_MOTION_DDOT></tleParameters></data></segment></body></omm>
<omm id="CCSDS_OMM_VERS" version="2.0">
<header><CREATION_DATE/><ORIGINATOR/></header><body><segment><metadata><OBJECT_NAME>ONEWEB-0705</OBJECT_NAME><OBJECT_ID>2024-188S</OBJECT_ID><CENTER_NAME>EARTH</CENTER_NAME><REF_FRAME>TEME</REF_FRAME><TIME_SYSTEM>UTC</TIME_SYSTEM><MEAN_ELEMENT_THEORY>SGP4</MEAN_ELEMENT_THEORY></metadata><data><meanElements><EPOCH>2025-02-14T20:36:25.946496</EPOCH><MEAN_MOTION>13.19787105</MEAN_MOTION><ECCENTRICITY>.0004402</ECCENTRICITY><INCLINATION>87.9444</INCLINATION><RA_OF_ASC_NODE>133.4079</RA_OF_ASC_NODE><ARG_OF_PERICENTER>358.1794</ARG_OF_PERICENTER><MEAN_ANOMALY>1.9322</MEAN_ANOMALY></meanElements><tleParameters><EPHEMERIS_TYPE>0</EPHEMERIS_TYPE><CLASSIFICATION_TYPE>U</CLASSIFICATION_TYPE><NORAD_CAT_ID>61610</NORAD_CAT_ID><ELEMENT_SET_NO>999</ELEMENT_SET_NO><REV_AT_EPOCH>1777</REV_AT_EPOCH><BSTAR>-.86997E+0</BSTAR><MEAN_MOTION_DOT>-.336024E-2</MEAN_MOTION_DOT><MEAN_MOTION_DDOT>0</MEAN_MOTION_DDOT></tleParameters></data></segment></body></omm>

</ndm>
